CCSDS_OMM_VERS = 2.0
CREATION_DATE  = 
ORIGINATOR     = 

OBJECT_NAME    = STARLINK-36467
OBJECT_ID      = 2026-003Q
CENTER_NAME    = EARTH
REF_FRAME      = TEME
TIME_SYSTEM    = UTC
MEAN_ELEMENT_THEORY = SGP/SGP4

EPOCH          = 2026-01-28T22:00:01.999584
MEAN_MOTION    = 15.66131480
ECCENTRICITY   = .00011676
INCLINATION    = 42.9998
RA_OF_ASC_NODE = 94.3370
ARG_OF_PERICENTER = 266.6049
MEAN_ANOMALY   = 345.2209

EPHEMERIS_TYPE = 0
CLASSIFICATION_TYPE = U
NORAD_CAT_ID   = 67348
ELEMENT_SET_NO = 999
REV_AT_EPOCH   = 428
BSTAR          = -.2245613E-1
MEAN_MOTION_DOT = -.2077612E-1
MEAN_MOTION_DDOT = 0

CCSDS_OMM_VERS = 2.0
CREATION_DATE  = 
ORIGINATOR     = 

OBJECT_NAME    = STARLINK-36457
OBJECT_ID      = 2026-003R
CENTER_NAME    = EARTH
REF_FRAME      = TEME
TIME_SYSTEM    = UTC
MEAN_ELEMENT_THEORY = SGP/SGP4

EPOCH          = 2026-01-28T22:00:01.999584
MEAN_MOTION    = 15.66131288
ECCENTRICITY   = .00012194
INCLINATION    = 42.9999
RA_OF_ASC_NODE = 94.3270
ARG_OF_PERICENTER = 266.3101
MEAN_ANOMALY   = 349.3524

EPHEMERIS_TYPE = 0
CLASSIFICATION_TYPE = U
NORAD_CAT_ID   = 67349
ELEMENT_SET_NO = 999
REV_AT_EPOCH   = 428
BSTAR          = -.22479551E-1
MEAN_MOTION_DOT = -.207953E-1
MEAN_MOTION_DDOT = 0

CCSDS_OMM_VERS = 2.0
CREATION_DATE  = 
ORIGINATOR     = 

OBJECT_NAME    = STARLINK-36475
OBJECT_ID      = 2026-003S
CENTER_NAME    = EARTH
REF_FRAME      = TEME
TIME_SYSTEM    = UTC
MEAN_ELEMENT_THEORY = SGP/SGP4

EPOCH          = 2026-01-28T22:00:01.999584
MEAN_MOTION    = 15.66124979
ECCENTRICITY   = .0001374
INCLINATION    = 43.0000
RA_OF_ASC_NODE = 94.3217
ARG_OF_PERICENTER = 268.9805
MEAN_ANOMALY   = 348.5998

EPHEMERIS_TYPE = 0
CLASSIFICATION_TYPE = U
NORAD_CAT_ID   = 67350
ELEMENT_SET_NO = 999
REV_AT_EPOCH   = 427
BSTAR          = -.22358971E-1
MEAN_MOTION_DOT = -.2069454E-1
MEAN_MOTION_DDOT = 0

CCSDS_OMM_VERS = 2.0
CREATION_DATE  = 
ORIGINATOR     = 

OBJECT_NAME    = STARLINK-36478
OBJECT_ID      = 2026-003T
CENTER_NAME    = EARTH
REF_FRAME      = TEME
TIME_SYSTEM    = UTC
MEAN_ELEMENT_THEORY = SGP/SGP4

EPOCH          = 2026-01-28T22:00:01.999584
MEAN_MOTION    = 15.66127668
ECCENTRICITY   = .00011869
INCLINATION    = 43.0001
RA_OF_ASC_NODE = 94.3173
ARG_OF_PERICENTER = 266.2128
MEAN_ANOMALY   = 353.2841

EPHEMERIS_TYPE = 0
CLASSIFICATION_TYPE = U
NORAD_CAT_ID   = 67351
ELEMENT_SET_NO = 999
REV_AT_EPOCH   = 427
BSTAR          = -.22408712E-1
MEAN_MOTION_DOT = -.2073517E-1
MEAN_MOTION_DDOT = 0

CCSDS_OMM_VERS = 2.0
CREATION_DATE  = 
ORIGINATOR     = 

OBJECT_NAME    = STARLINK-36479
OBJECT_ID      = 2026-003U
CENTER_NAME    = EARTH
REF_FRAME      = TEME
TIME_SYSTEM    = UTC
MEAN_ELEMENT_THEORY = SGP/SGP4

EPOCH          = 2026-01-28T22:00:01.999584
MEAN_MOTION    = 15.66131510
ECCENTRICITY   = .00012738
INCLINATION    = 43.0003
RA_OF_ASC_NODE = 94.3123
ARG_OF_PERICENTER = 265.3611
MEAN_ANOMALY   = 356.0519

EPHEMERIS_TYPE = 0
CLASSIFICATION_TYPE = U
NORAD_CAT_ID   = 67352
ELEMENT_SET_NO = 999
REV_AT_EPOCH   = 428
BSTAR          = -.22468046E-1
MEAN_MOTION_DOT = -.2078662E-1
MEAN_MOTION_DDOT = 0

CCSDS_OMM_VERS = 2.0
CREATION_DATE  = 
ORIGINATOR     = 

OBJECT_NAME    = STARLINK-36474
OBJECT_ID      = 2026-003V
CENTER_NAME    = EARTH
REF_FRAME      = TEME
TIME_SYSTEM    = UTC
MEAN_ELEMENT_THEORY = SGP/SGP4

EPOCH          = 2026-01-28T22:00:01.999584
MEAN_MOTION    = 15.66131928
ECCENTRICITY   = .00012755
INCLINATION    = 42.9999
RA_OF_ASC_NODE = 94.3075
ARG_OF_PERICENTER = 266.9536
MEAN_ANOMALY   = 356.3754

EPHEMERIS_TYPE = 0
CLASSIFICATION_TYPE = U
NORAD_CAT_ID   = 67353
ELEMENT_SET_NO = 999
REV_AT_EPOCH   = 428
BSTAR          = -.22467326E-1
MEAN_MOTION_DOT = -.2078637E-1
MEAN_MOTION_DDOT = 0

CCSDS_OMM_VERS = 2.0
CREATION_DATE  = 
ORIGINATOR     = 

OBJECT_NAME    = STARLINK-36448
OBJECT_ID      = 2026-003W
CENTER_NAME    = EARTH
REF_FRAME      = TEME
TIME_SYSTEM    = UTC
MEAN_ELEMENT_THEORY = SGP/SGP4

EPOCH          = 2026-01-28T22:00:01.999584
MEAN_MOTION    = 15.66130500
ECCENTRICITY   = .00013566
INCLINATION    = 43.0001
RA_OF_ASC_NODE = 94.2923
ARG_OF_PERICENTER = 264.9991
MEAN_ANOMALY   = 4.0828

EPHEMERIS_TYPE = 0
CLASSIFICATION_TYPE = U
NORAD_CAT_ID   = 67354
ELEMENT_SET_NO = 999
REV_AT_EPOCH   = 428
BSTAR          = -.2244303E-1
MEAN_MOTION_DOT = -.2076637E-1
MEAN_MOTION_DDOT = 0

CCSDS_OMM_VERS = 2.0
CREATION_DATE  = 
ORIGINATOR     = 

OBJECT_NAME    = STARLINK-36477
OBJECT_ID      = 2026-003X
CENTER_NAME    = EARTH
REF_FRAME      = TEME
TIME_SYSTEM    = UTC
MEAN_ELEMENT_THEORY = SGP/SGP4

EPOCH          = 2026-01-28T22:00:01.999584
MEAN_MOTION    = 15.66129314
ECCENTRICITY   = .000125
INCLINATION    = 42.9999
RA_OF_ASC_NODE = 94.3029
ARG_OF_PERICENTER = 267.6581
MEAN_ANOMALY   = 357.5894

EPHEMERIS_TYPE = 0
CLASSIFICATION_TYPE = U
NORAD_CAT_ID   = 67355
ELEMENT_SET_NO = 999
REV_AT_EPOCH   = 427
BSTAR          = -.22438079E-1
MEAN_MOTION_DOT = -.2076062E-1
MEAN_MOTION_DDOT = 0

CCSDS_OMM_VERS = 2.0
CREATION_DATE  = 
ORIGINATOR     = 

OBJECT_NAME    = STARLINK-36429
OBJECT_ID      = 2026-003Y
CENTER_NAME    = EARTH
REF_FRAME      = TEME
TIME_SYSTEM    = UTC
MEAN_ELEMENT_THEORY = SGP/SGP4

EPOCH          = 2026-01-28T22:00:01.999584
MEAN_MOTION    = 15.66131050
ECCENTRICITY   = .00012395
INCLINATION    = 42.9999
RA_OF_ASC_NODE = 94.2978
ARG_OF_PERICENTER = 268.3997
MEAN_ANOMALY   = 358.7640

EPHEMERIS_TYPE = 0
CLASSIFICATION_TYPE = U
NORAD_CAT_ID   = 67356
ELEMENT_SET_NO = 999
REV_AT_EPOCH   = 427
BSTAR          = -.22465027E-1
MEAN_MOTION_DOT = -.2078357E-1
MEAN_MOTION_DDOT = 0

CCSDS_OMM_VERS = 2.0
CREATION_DATE  = 
ORIGINATOR     = 

OBJECT_NAME    = STARLINK-36456
OBJECT_ID      = 2026-003Z
CENTER_NAME    = EARTH
REF_FRAME      = TEME
TIME_SYSTEM    = UTC
MEAN_ELEMENT_THEORY = SGP/SGP4

EPOCH          = 2026-01-28T22:00:01.999584
MEAN_MOTION    = 15.66129120
ECCENTRICITY   = .00012753
INCLINATION    = 43.0001
RA_OF_ASC_NODE = 94.2875
ARG_OF_PERICENTER = 268.6341
MEAN_ANOMALY   = 2.3647

EPHEMERIS_TYPE = 0
CLASSIFICATION_TYPE = U
NORAD_CAT_ID   = 67357
ELEMENT_SET_NO = 999
REV_AT_EPOCH   = 428
BSTAR          = -.22434001E-1
MEAN_MOTION_DOT = -.2075739E-1
MEAN_MOTION_DDOT = 0

CCSDS_OMM_VERS = 2.0
CREATION_DATE  = 
ORIGINATOR     = 

OBJECT_NAME    = STARLINK-36466
OBJECT_ID      = 2026-003AA
CENTER_NAME    = EARTH
REF_FRAME      = TEME
TIME_SYSTEM    = UTC
MEAN_ELEMENT_THEORY = SGP/SGP4

EPOCH          = 2026-01-28T22:00:01.999584
MEAN_MOTION    = 15.66130337
ECCENTRICITY   = .00013162
INCLINATION    = 42.9998
RA_OF_ASC_NODE = 94.2824
ARG_OF_PERICENTER = 267.5980
MEAN_ANOMALY   = 5.3167

EPHEMERIS_TYPE = 0
CLASSIFICATION_TYPE = U
NORAD_CAT_ID   = 67358
ELEMENT_SET_NO = 999
REV_AT_EPOCH   = 428
BSTAR          = -.2243587E-1
MEAN_MOTION_DOT = -.2076014E-1
MEAN_MOTION_DDOT = 0

CCSDS_OMM_VERS = 2.0
CREATION_DATE  = 
ORIGINATOR     = 

OBJECT_NAME    = STARLINK-36499
OBJECT_ID      = 2026-003AB
CENTER_NAME    = EARTH
REF_FRAME      = TEME
TIME_SYSTEM    = UTC
MEAN_ELEMENT_THEORY = SGP/SGP4

EPOCH          = 2026-01-28T22:00:01.999584
MEAN_MOTION    = 15.66128782
ECCENTRICITY   = .00012221
INCLINATION    = 42.9999
RA_OF_ASC_NODE = 94.2779
ARG_OF_PERICENTER = 267.5801
MEAN_ANOMALY   = 7.2523

EPHEMERIS_TYPE = 0
CLASSIFICATION_TYPE = U
NORAD_CAT_ID   = 67359
ELEMENT_SET_NO = 999
REV_AT_EPOCH   = 428
BSTAR          = -.22420672E-1
MEAN_MOTION_DOT = -.2074594E-1
MEAN_MOTION_DDOT = 0

