STARLINK-36467          
1 67348U 26003Q   26028.91668981 -.02077612  00000+0 -22456-1 0  9991
2 67348  42.9998  94.3370 0001167 266.6049 345.2209 15.66131480  4289
STARLINK-36457          
1 67349U 26003R   26028.91668981 -.02079530  00000+0 -22480-1 0  9990
2 67349  42.9999  94.3270 0001219 266.3101 349.3524 15.66131288  4285
STARLINK-36475          
1 67350U 26003S   26028.91668981 -.02069454  00000+0 -22359-1 0  9991
2 67350  43.0000  94.3217 0001374 268.9805 348.5998 15.66124979  4278
STARLINK-36478          
1 67351U 26003T   26028.91668981 -.02073517  00000+0 -22409-1 0  9993
2 67351  43.0001  94.3173 0001186 266.2128 353.2841 15.66127668  4279
STARLINK-36479          
1 67352U 26003U   26028.91668981 -.02078662  00000+0 -22468-1 0  9995
2 67352  43.0003  94.3123 0001273 265.3611 356.0519 15.66131510  4286
STARLINK-36474          
1 67353U 26003V   26028.91668981 -.02078637  00000+0 -22467-1 0  9997
2 67353  42.9999  94.3075 0001275 266.9536 356.3754 15.66131928  4287
STARLINK-36448          
1 67354U 26003W   26028.91668981 -.02076637  00000+0 -22443-1 0  9990
2 67354  43.0001  94.2923 0001356 264.9991   4.0828 15.66130500  4282
STARLINK-36477          
1 67355U 26003X   26028.91668981 -.02076062  00000+0 -22438-1 0  9997
2 67355  42.9999  94.3029 0001250 267.6581 357.5894 15.66129314  4272
STARLINK-36429          
1 67356U 26003Y   26028.91668981 -.02078357  00000+0 -22465-1 0  9997
2 67356  42.9999  94.2978 0001239 268.3997 358.7640 15.66131050  4273
STARLINK-36456          
1 67357U 26003Z   26028.91668981 -.02075739  00000+0 -22434-1 0  9995
2 67357  43.0001  94.2875 0001275 268.6341   2.3647 15.66129120  4287
STARLINK-36466          
1 67358U 26003AA  26028.91668981 -.02076014  00000+0 -22436-1 0  9995
2 67358  42.9998  94.2824 0001316 267.5980   5.3167 15.66130337  4280
STARLINK-36499          
1 67359U 26003AB  26028.91668981 -.02074594  00000+0 -22421-1 0  9991
2 67359  42.9999  94.2779 0001222 267.5801   7.2523 15.66128782  4287
